NORAD_CAT_ID,OBJECT_NAME,OBJECT_TYPE,EPOCH,MEAN_MOTION,ECCENTRICITY,INCLINATION,RA_OF_ASC_NODE,ARG_OF_PERICENTER,MEAN_ANOMALY,BSTAR,MEAN_MOTION_DOT,MEAN_MOTION_DDOT,TLE_LINE0,TLE_LINE1,TLE_LINE2,SEMIMAJOR_AXIS,PERIOD,APOGEE,PERIGEE,DECAYED
53132.0,STARLINK-4063,PAYLOAD,2023-10-20 16:14:18,15.08839498,0.0001829,53.2138,124.2485,87.7639,272.3562,6.7521e-05,7.87e-06,0.0,0 STARLINK-4063,1 53132U 22083A   23293.67660577  .00000787  00000-0  67521-4 0  9999,2 53132  53.2138 124.2485 0001829  87.7639 272.3562 15.08839498 70351,6917.882,95.438,541.012,538.482,0.0
53132.0,STARLINK-4063,PAYLOAD,2023-10-21 12:54:19,15.08841175,0.0001497,53.2152,120.3813,87.5601,272.5563,8.8536e-05,1.121e-05,0.0,0 STARLINK-4063,1 53132U 22083A   23294.53772494  .00001121  00000-0  88536-4 0  9999,2 53132  53.2152 120.3813 0001497  87.5601 272.5563 15.08841175 69858,6917.877,95.437,540.777,538.706,0.0
53132.0,STARLINK-4063,PAYLOAD,2023-10-21 19:15:51,15.08859556,0.0001242,53.215,119.1946,89.9829,270.1305,-0.00011235,-2.076e-05,0.0,0 STARLINK-4063,1 53132U 22083A   23294.80267775 -.00002076  00000-0 -11235-3 0  9993,2 53132  53.2150 119.1946 0001242  89.9829 270.1305 15.08859556 70521,6917.821,95.436,540.545,538.826,0.0
53132.0,STARLINK-4063,PAYLOAD,2023-10-22 12:45:06,15.08833152,0.0001358,53.2139,115.925,91.4582,268.6566,8.2275e-05,1.022e-05,0.0,0 STARLINK-4063,1 53132U 22083A   23295.53133075  .00001022  00000-0  82275-4 0  9990,2 53132  53.2139 115.9250 0001358  91.4582 268.6566 15.08833152 70639,6917.901,95.438,540.706,538.827,0.0
53132.0,STARLINK-4063,PAYLOAD,2023-10-22 19:06:39,15.0883321,0.0001328,53.2161,114.7326,87.5399,272.5745,8.5596e-05,1.074e-05,0.0,0 STARLINK-4063,1 53132U 22083A   23295.79629198  .00001074  00000-0  85596-4 0  9990,2 53132  53.2161 114.7326 0001328  87.5399 272.5745 15.08833210 70047,6917.901,95.438,540.685,538.847,0.0
53132.0,STARLINK-4063,PAYLOAD,2023-10-23 18:57:26,15.08843305,0.0001302,53.2154,110.2731,90.4839,269.6303,4.838e-05,4.82e-06,0.0,0 STARLINK-4063,1 53132U 22083A   23296.78988695  .00000482  00000-0  48380-4 0  9992,2 53132  53.2154 110.2731 0001302  90.4839 269.6303 15.08843305 70823,6917.87,95.437,540.636,538.835,0.0
53132.0,STARLINK-4063,PAYLOAD,2023-10-23 20:32:48,15.08854493,0.0001495,53.2155,109.9754,98.8193,261.2968,-0.00026591,-4.519e-05,0.0,0 STARLINK-4063,1 53132U 22083A   23296.85612018 -.00004519  00000-0 -26591-3 0  9999,2 53132  53.2155 109.9754 0001495  98.8193 261.2968 15.08854493 70209,6917.836,95.437,540.735,538.667,0.0
53132.0,STARLINK-4063,PAYLOAD,2023-10-24 04:29:45,15.08833338,0.0001391,53.2163,108.4884,86.3683,273.7468,7.4939e-05,9.05e-06,0.0,0 STARLINK-4063,1 53132U 22083A   23297.18733563  .00000905  00000-0  74939-4 0  9998,2 53132  53.2163 108.4884 0001391  86.3683 273.7468 15.08833338 70889,6917.901,95.438,540.728,538.803,0.0
53132.0,STARLINK-4063,PAYLOAD,2023-10-24 12:26:41,15.08835014,0.0001271,53.2162,107.0017,91.5324,268.5814,0.00011514,1.545e-05,0.0,0 STARLINK-4063,1 53132U 22083A   23297.51853498  .00001545  00000-0  11514-3 0  9995,2 53132  53.2162 107.0017 0001271  91.5324 268.5814 15.08835014 70305,6917.896,95.438,540.64,538.881,0.0
53132.0,STARLINK-4063,PAYLOAD,2023-10-24 14:02:04,15.08836426,0.0001347,53.2165,106.7041,93.0756,267.0391,0.00012974,1.777e-05,0.0,0 STARLINK-4063,1 53132U 22083A   23297.58477382  .00001777  00000-0  12974-3 0  9994,2 53132  53.2165 106.7041 0001347  93.0756 267.0391 15.08836426 70314,6917.891,95.438,540.688,538.824,0.0
53132.0,STARLINK-4063,PAYLOAD,2023-10-25 13:52:50,15.08845491,0.0001294,53.2153,102.2439,91.3054,268.8086,0.00016053,2.268e-05,0.0,0 STARLINK-4063,1 53132U 22083A   23298.57836759  .00002268  00000-0  16053-3 0  9999,2 53132  53.2153 102.2439 0001294  91.3054 268.8086 15.08845491 71094,6917.864,95.437,540.624,538.833,0.0
53132.0,STARLINK-4063,PAYLOAD,2023-10-25 21:49:46,15.08853783,0.0001277,53.215,100.7572,91.0197,269.0941,0.00032504,4.891e-05,0.0,0 STARLINK-4063,1 53132U 22083A   23298.90956383  .00004891  00000-0  32504-3 0  9995,2 53132  53.2150 100.7572 0001277  91.0197 269.0941 15.08853783 70510,6917.838,95.437,540.587,538.82,0.0
53132.0,STARLINK-4063,PAYLOAD,2023-10-26 12:08:14,15.08843104,0.0001321,53.2151,98.0808,86.8056,273.3087,0.00012749,1.742e-05,0.0,0 STARLINK-4063,1 53132U 22083A   23299.50572737  .00001742  00000-0  12749-3 0  9990,2 53132  53.2151  98.0808 0001321  86.8056 273.3087 15.08843104 70603,6917.871,95.437,540.65,538.822,0.0
53132.0,STARLINK-4063,PAYLOAD,2023-10-26 18:29:47,15.08850807,0.0001345,53.2157,96.8913,87.4028,272.7118,0.00021964,3.21e-05,0.0,0 STARLINK-4063,1 53132U 22083A   23299.77068367  .00003210  00000-0  21964-3 0  9999,2 53132  53.2157  96.8913 0001345  87.4028 272.7118 15.08850807 71274,6917.847,95.437,540.643,538.782,0.0
53132.0,STARLINK-4063,PAYLOAD,2023-10-26 21:40:33,15.08854034,0.000135,53.2152,96.2964,87.0589,273.0557,0.0003033,4.544e-05,0.0,0 STARLINK-4063,1 53132U 22083A   23299.90316196  .00004544  00000-0  30330-3 0  9998,2 53132  53.2152  96.2964 0001350  87.0589 273.0557 15.08854034 70662,6917.837,95.437,540.636,538.769,0.0
53132.0,STARLINK-4063,PAYLOAD,2023-10-27 10:23:38,15.08841011,0.0001082,53.2154,93.9175,95.3361,264.7755,4.7987e-05,4.76e-06,0.0,0 STARLINK-4063,1 53132U 22083A   23300.43308546  .00000476  00000-0  47987-4 0  9996,2 53132  53.2154  93.9175 0001082  95.3361 264.7755 15.08841011 71371,6917.877,95.437,540.491,538.994,0.0
53132.0,STARLINK-4063,PAYLOAD,2023-10-27 19:55:56,15.08853116,0.0001353,53.2152,92.1335,85.7402,274.3745,0.0002726,4.055e-05,0.0,0 STARLINK-4063,1 53132U 22083A   23300.83052080  .00004055  00000-0  27260-3 0  9997,2 53132  53.2152  92.1335 0001353  85.7402 274.3745 15.08853116 71430,6917.84,95.437,540.641,538.769,0.0
53132.0,STARLINK-4063,PAYLOAD,2023-10-28 10:14:25,15.08833559,0.0001771,53.2154,89.4563,94.2146,265.9048,-5.0339e-05,-1.089e-05,0.0,0 STARLINK-4063,1 53132U 22083A   23301.42668917 -.00001089  00000-0 -50339-4 0  9995,2 53132  53.2154  89.4563 0001771  94.2146 265.9048 15.08833559 71529,6917.9,95.438,540.99,538.54,0.0
53132.0,STARLINK-4063,PAYLOAD,2023-10-28 13:25:12,15.0883654,0.0001705,53.2159,88.8616,97.3607,262.7579,3.6267e-05,2.89e-06,0.0,0 STARLINK-4063,1 53132U 22083A   23301.55916983  .00000289  00000-0  36267-4 0  9991,2 53132  53.2159  88.8616 0001705  97.3607 262.7579 15.08836540 70918,6917.891,95.438,540.935,538.576,0.0
53132.0,STARLINK-4063,PAYLOAD,2023-10-28 16:35:58,15.08834707,0.0001413,53.216,88.2685,94.7524,265.363,1.9232e-05,1.8e-07,0.0,0 STARLINK-4063,1 53132U 22083A   23301.69165031  .00000018  00000-0  19232-4 0  9999,2 53132  53.2160  88.2685 0001413  94.7524 265.3630 15.08834707 70937,6917.897,95.438,540.739,538.784,0.0
53132.0,STARLINK-4063,PAYLOAD,2023-10-29 10:05:12,15.08847807,0.0001223,53.2162,84.9943,97.7838,262.3293,0.00042842,6.538e-05,0.0,0 STARLINK-4063,1 53132U 22083A   23302.42028848  .00006538  00000-0  42842-3 0  9990,2 53132  53.2162  84.9943 0001223  97.7838 262.3293 15.08847807 71678,6917.857,95.437,540.568,538.875,0.0
53132.0,STARLINK-4063,PAYLOAD,2023-10-29 14:51:22,15.08858865,0.0001423,53.2159,84.1028,94.3775,265.738,0.00080311,0.00012523,0.0,0 STARLINK-4063,1 53132U 22083A   23302.61900691  .00012523  00000-0  80311-3 0  9990,2 53132  53.2159  84.1028 0001423  94.3775 265.7380 15.08858865 71079,6917.823,95.436,540.672,538.703,0.0
53132.0,STARLINK-4063,PAYLOAD,2023-10-29 16:26:45,15.08863987,0.0001295,53.2154,83.8068,91.146,268.9681,0.0011145,0.00017505,0.0,0 STARLINK-4063,1 53132U 22083A   23302.68524624  .00017505  00000-0  11145-2 0  9998,2 53132  53.2154  83.8068 0001295  91.1460 268.9681 15.08863987 71718,6917.807,95.436,540.568,538.776,0.0
53132.0,STARLINK-4063,PAYLOAD,2023-10-29 19:37:31,15.08871671,0.000127,53.2168,83.2118,88.0526,272.0612,0.0011485,0.00018053,0.0,0 STARLINK-4063,1 53132U 22083A   23302.81772314  .00018053  00000-0  11485-2 0  9990,2 53132  53.2168  83.2118 0001270  88.0526 272.0612 15.08871671 71106,6917.784,95.436,540.527,538.77,0.0
53132.0,STARLINK-4063,PAYLOAD,2023-10-30 09:55:59,15.08842257,0.0001232,53.2159,80.5356,102.3732,257.7398,0.00012654,1.727e-05,0.0,0 STARLINK-4063,1 53132U 22083A   23303.41388813  .00001727  00000-0  12654-3 0  9994,2 53132  53.2159  80.5356 0001232 102.3732 257.7398 15.08842257 71825,6917.873,95.437,540.591,538.886,0.0
53132.0,STARLINK-4063,PAYLOAD,2023-10-30 21:03:42,15.08839896,0.0001664,53.216,78.4544,101.2673,258.8506,0.00035867,5.425e-05,0.0,0 STARLINK-4063,1 53132U 22083A   23303.87757067  .00005425  00000-0  35867-3 0  9995,2 53132  53.2160  78.4544 0001664 101.2673 258.8506 15.08839896 71269,6917.881,95.438,540.897,538.595,0.0
53132.0,STARLINK-4063,PAYLOAD,2023-10-31 12:57:33,15.0883505,0.0001669,53.2182,75.4787,96.4238,263.6944,0.00033758,5.088e-05,0.0,0 STARLINK-4063,1 53132U 22083A   23304.53997583  .00005088  00000-0  33758-3 0  9990,2 53132  53.2182  75.4787 0001669  96.4238 263.6944 15.08835050 71994,6917.896,95.438,540.915,538.606,0.0
53132.0,STARLINK-4063,PAYLOAD,2023-10-31 14:32:57,15.08836379,0.0001645,53.2184,75.1814,96.3595,263.7584,0.00030433,4.558e-05,0.0,0 STARLINK-4063,1 53132U 22083A   23304.60621545  .00004558  00000-0  30433-3 0  9998,2 53132  53.2184  75.1814 0001645  96.3595 263.7584 15.08836379 71371,6917.891,95.438,540.894,538.618,0.0
53132.0,STARLINK-4063,PAYLOAD,2023-10-31 16:08:20,15.0884164,0.0001271,53.2166,74.8868,101.3621,258.7514,0.00046786,7.166e-05,0.0,0 STARLINK-4063,1 53132U 22083A   23304.67245432  .00007166  00000-0  46786-3 0  9998,2 53132  53.2166  74.8868 0001271 101.3621 258.7514 15.08841640 71383,6917.875,95.437,540.62,538.861,0.0
53132.0,STARLINK-4063,PAYLOAD,2023-11-01 14:23:44,15.08846669,0.000146,53.2175,70.7223,85.7095,274.4064,0.00044543,6.809e-05,0.0,0 STARLINK-4063,1 53132U 22083A   23305.59981577  .00006809  00000-0  44543-3 0  9999,2 53132  53.2175  70.7223 0001460  85.7095 274.4064 15.08846669 71520,6917.86,95.437,540.735,538.715,0.0
